{
  "type": "FeatureCollection",
  "features": [
    {
      "type": "Feature",
      "properties": {
        "norad_id": 67077,
        "name": "STARLINK-36243",
        "group": "last-30-days",
        "lat": -16.269218791758213,
        "lon": 33.714588457581065,
        "alt_km": 357.8493851256135,
        "timestamp": "2025-12-27T15:27:09.833815+00:00",
        "meta_object_name": "STARLINK-36243",
        "meta_object_id": "2025-298C",
        "meta_epoch": "2025-12-27T06:00:02.000160",
        "meta_mean_motion": 15.73252394,
        "meta_eccentricity": 0.00033538,
        "meta_inclination": 69.9993,
        "meta_ra_of_asc_node": 208.7233,
        "meta_arg_of_pericenter": 276.7895,
        "meta_mean_anomaly": 211.6542,
        "meta_ephemeris_type": 0,
        "meta_classification_type": "U",
        "meta_norad_cat_id": 67077,
        "meta_element_set_no": 999,
        "meta_rev_at_epoch": 330,
        "meta_bstar": -0.014569927,
        "meta_mean_motion_dot": -0.01771814,
        "meta_mean_motion_ddot": 0,
        "tle_line1": "1 67077U 25298C   25361.25002315 -.01771814  00000+0 -14570-1 0  9996",
        "tle_line2": "2 67077  69.9993 208.7233 0003353 276.7895 211.6542 15.73252394  3305"
      },
      "geometry": {
        "type": "Point",
        "coordinates": [
          33.714588457581065,
          -16.269218791758213
        ]
      }
    },
    {
      "type": "Feature",
      "properties": {
        "norad_id": 67078,
        "name": "STARLINK-36236",
        "group": "last-30-days",
        "lat": -17.986801541036087,
        "lon": 34.401351479569975,
        "alt_km": 357.9228232552068,
        "timestamp": "2025-12-27T15:27:09.833826+00:00",
        "meta_object_name": "STARLINK-36236",
        "meta_object_id": "2025-298D",
        "meta_epoch": "2025-12-27T06:00:02.000160",
        "meta_mean_motion": 15.73255283,
        "meta_eccentricity": 0.00034054,
        "meta_inclination": 69.999,
        "meta_ra_of_asc_node": 208.7205,
        "meta_arg_of_pericenter": 276.9906,
        "meta_mean_anomaly": 213.2872,
        "meta_ephemeris_type": 0,
        "meta_classification_type": "U",
        "meta_norad_cat_id": 67078,
        "meta_element_set_no": 999,
        "meta_rev_at_epoch": 330,
        "meta_bstar": -0.014530813,
        "meta_mean_motion_dot": -0.0176788,
        "meta_mean_motion_ddot": 0,
        "tle_line1": "1 67078U 25298D   25361.25002315 -.01767880  00000+0 -14531-1 0  9992",
        "tle_line2": "2 67078  69.9990 208.7205 0003405 276.9906 213.2872 15.73255283  3309"
      },
      "geometry": {
        "type": "Point",
        "coordinates": [
          34.401351479569975,
          -17.986801541036087
        ]
      }
    },
    {
      "type": "Feature",
      "properties": {
        "norad_id": 67079,
        "name": "STARLINK-36159",
        "group": "last-30-days",
        "lat": -19.543762068749167,
        "lon": 35.038144001216125,
        "alt_km": 359.7779453184894,
        "timestamp": "2025-12-27T15:27:09.833837+00:00",
        "meta_object_name": "STARLINK-36159",
        "meta_object_id": "2025-298E",
        "meta_epoch": "2025-12-27T06:00:02.000160",
        "meta_mean_motion": 15.7321632,
        "meta_eccentricity": 0.00034849,
        "meta_inclination": 69.9994,
        "meta_ra_of_asc_node": 208.7193,
        "meta_arg_of_pericenter": 277.9821,
        "meta_mean_anomaly": 214.4423,
        "meta_ephemeris_type": 0,
        "meta_classification_type": "U",
        "meta_norad_cat_id": 67079,
        "meta_element_set_no": 999,
        "meta_rev_at_epoch": 330,
        "meta_bstar": -0.020304262,
        "meta_mean_motion_dot": -0.02410569,
        "meta_mean_motion_ddot": 0,
        "tle_line1": "1 67079U 25298E   25361.25002315 -.02410569  00000+0 -20304-1 0  9998",
        "tle_line2": "2 67079  69.9994 208.7193 0003484 277.9821 214.4423 15.73216320  3308"
      },
      "geometry": {
        "type": "Point",
        "coordinates": [
          35.038144001216125,
          -19.543762068749167
        ]
      }
    },
    {
      "type": "Feature",
      "properties": {
        "norad_id": 67080,
        "name": "STARLINK-36158",
        "group": "last-30-days",
        "lat": -21.90083222712363,
        "lon": 36.024489535049675,
        "alt_km": 358.0976075788867,
        "timestamp": "2025-12-27T15:27:09.833847+00:00",
        "meta_object_name": "STARLINK-36158",
        "meta_object_id": "2025-298F",
        "meta_epoch": "2025-12-27T06:00:02.000160",
        "meta_mean_motion": 15.7323545,
        "meta_eccentricity": 0.00034526,
        "meta_inclination": 69.9992,
        "meta_ra_of_asc_node": 208.715,
        "meta_arg_of_pericenter": 275.5455,
        "meta_mean_anomaly": 218.9656,
        "meta_ephemeris_type": 0,
        "meta_classification_type": "U",
        "meta_norad_cat_id": 67080,
        "meta_element_set_no": 999,
        "meta_rev_at_epoch": 325,
        "meta_bstar": -0.014549053,
        "meta_mean_motion_dot": -0.01768545,
        "meta_mean_motion_ddot": 0,
        "tle_line1": "1 67080U 25298F   25361.25002315 -.01768545  00000+0 -14549-1 0  9993",
        "tle_line2": "2 67080  69.9992 208.7150 0003452 275.5455 218.9656 15.73235450  3259"
      },
      "geometry": {
        "type": "Point",
        "coordinates": [
          36.024489535049675,
          -21.90083222712363
        ]
      }
    },
    {
      "type": "Feature",
      "properties": {
        "norad_id": 67081,
        "name": "STARLINK-35864",
        "group": "last-30-days",
        "lat": -23.709012712469008,
        "lon": 36.80769314628651,
        "alt_km": 358.24018095859446,
        "timestamp": "2025-12-27T15:27:09.833857+00:00",
        "meta_object_name": "STARLINK-35864",
        "meta_object_id": "2025-298G",
        "meta_epoch": "2025-12-27T06:00:02.000160",
        "meta_mean_motion": 15.73236804,
        "meta_eccentricity": 0.00033214,
        "meta_inclination": 69.9995,
        "meta_ra_of_asc_node": 208.7139,
        "meta_arg_of_pericenter": 276.1852,
        "meta_mean_anomaly": 220.2752,
        "meta_ephemeris_type": 0,
        "meta_classification_type": "U",
        "meta_norad_cat_id": 67081,
        "meta_element_set_no": 999,
        "meta_rev_at_epoch": 331,
        "meta_bstar": -0.01460465,
        "meta_mean_motion_dot": -0.0177444,
        "meta_mean_motion_ddot": 0,
        "tle_line1": "1 67081U 25298G   25361.25002315 -.01774440  00000+0 -14605-1 0  9998",
        "tle_line2": "2 67081  69.9995 208.7139 0003321 276.1852 220.2752 15.73236804  3317"
      },
      "geometry": {
        "type": "Point",
        "coordinates": [
          36.80769314628651,
          -23.709012712469008
        ]
      }
    },
    {
      "type": "Feature",
      "properties": {
        "norad_id": 67082,
        "name": "STARLINK-36035",
        "group": "last-30-days",
        "lat": -25.57467936831305,
        "lon": 37.63987509089138,
        "alt_km": 358.36072507951576,
        "timestamp": "2025-12-27T15:27:09.833867+00:00",
        "meta_object_name": "STARLINK-36035",
        "meta_object_id": "2025-298H",
        "meta_epoch": "2025-12-27T06:00:02.000160",
        "meta_mean_motion": 15.73228495,
        "meta_eccentricity": 0.00033861,
        "meta_inclination": 69.9996,
        "meta_ra_of_asc_node": 208.7117,
        "meta_arg_of_pericenter": 277.4843,
        "meta_mean_anomaly": 221.002,
        "meta_ephemeris_type": 0,
        "meta_classification_type": "U",
        "meta_norad_cat_id": 67082,
        "meta_element_set_no": 999,
        "meta_rev_at_epoch": 331,
        "meta_bstar": -0.014582756,
        "meta_mean_motion_dot": -0.0177161,
        "meta_mean_motion_ddot": 0,
        "tle_line1": "1 67082U 25298H   25361.25002315 -.01771610  00000+0 -14583-1 0  9990",
        "tle_line2": "2 67082  69.9996 208.7117 0003386 277.4843 221.0020 15.73228495  3314"
      },
      "geometry": {
        "type": "Point",
        "coordinates": [
          37.63987509089138,
          -25.57467936831305
        ]
      }
    },
    {
      "type": "Feature",
      "properties": {
        "norad_id": 67083,
        "name": "STARLINK-36170",
        "group": "last-30-days",
        "lat": -27.463314061096867,
        "lon": 38.51007297459768,
        "alt_km": 358.3704772351284,
        "timestamp": "2025-12-27T15:27:09.833877+00:00",
        "meta_object_name": "STARLINK-36170",
        "meta_object_id": "2025-298J",
        "meta_epoch": "2025-12-27T06:00:02.000160",
        "meta_mean_motion": 15.7322451,
        "meta_eccentricity": 0.00033519,
        "meta_inclination": 69.9993,
        "meta_ra_of_asc_node": 208.7078,
        "meta_arg_of_pericenter": 275.3124,
        "meta_mean_anomaly": 225.226,
        "meta_ephemeris_type": 0,
        "meta_classification_type": "U",
        "meta_norad_cat_id": 67083,
        "meta_element_set_no": 999,
        "meta_rev_at_epoch": 331,
        "meta_bstar": -0.014611985,
        "meta_mean_motion_dot": -0.01774426,
        "meta_mean_motion_ddot": 0,
        "tle_line1": "1 67083U 25298J   25361.25002315 -.01774426  00000+0 -14612-1 0  9992",
        "tle_line2": "2 67083  69.9993 208.7078 0003351 275.3124 225.2260 15.73224510  3315"
      },
      "geometry": {
        "type": "Point",
        "coordinates": [
          38.51007297459768,
          -27.463314061096867
        ]
      }
    }
  ]
}